start=new Date('2023-01-29T00:00:00.000Z').valueOf();
sats=[{"PERIOD":"95.438","RCS_SIZE":"LARGE","TIME_SYSTEM":"UTC","SEMIMAJOR_AXIS":"6917.885","INCLINATION":"53.2202","CLASSIFICATION_TYPE":"U","OBJECT_ID":"2022-114J","TLE_LINE1":"1 53826U 22114J   23028.94723707  .00000707  00000-0  62507-4 0  9996","APOAPSIS":"540.383","MEAN_MOTION_DDOT":"0.0000000000000","GP_ID":"223888860","RA_OF_ASC_NODE":"2.6066","LAUNCH_DATE":"2022-09-19","MEAN_ELEMENT_THEORY":"SGP4","NORAD_CAT_ID":"53826","PERIAPSIS":"539.116","REF_FRAME":"TEME","MEAN_ANOMALY":"260.2670","ARG_OF_PERICENTER":"99.8425","ELEMENT_SET_NO":"999","COUNTRY_CODE":"US","BSTAR":"0.00006250700000","DECAY_DATE":null,"MEAN_MOTION":"15.08838578","ECCENTRICITY":"0.00009160","FILE":"3764151","EPHEMERIS_TYPE":"0","SITE":"AFETR","MEAN_MOTION_DOT":"0.00000707","REV_AT_EPOCH":"2083","OBJECT_TYPE":"PAYLOAD","EPOCH":"2023-01-28T22:44:01.282848","OBJECT_NAME":"STARLINK-4756","CENTER_NAME":"EARTH","TLE_LINE2":"2 53826  53.2202   2.6066 0000916  99.8425 260.2670 15.08838578 20832"},{"ELEMENT_SET_NO":"999","COUNTRY_CODE":"US","BSTAR":"-0.00008721200000","MEAN_MOTION":"15.08843719","DECAY_DATE":null,"OBJECT_TYPE":"PAYLOAD","REV_AT_EPOCH":"2126","EPOCH":"2023-01-28T05:30:42.212736","OBJECT_NAME":"STARLINK-4764","CENTER_NAME":"EARTH","TLE_LINE2":"2 53827  53.2197   5.9454 0001030  99.6756 260.4353 15.08843719 21267","ECCENTRICITY":"0.00010300","EPHEMERIS_TYPE":"0","FILE":"3763924","MEAN_MOTION_DOT":"-0.00001676","SITE":"AFETR","INCLINATION":"53.2197","CLASSIFICATION_TYPE":"U","OBJECT_ID":"2022-114K","APOAPSIS":"540.447","TLE_LINE1":"1 53827U 22114K   23028.22965524 -.00001676  00000-0 -87212-4 0  9991","MEAN_MOTION_DDOT":"0.0000000000000","RCS_SIZE":"LARGE","PERIOD":"95.437","SEMIMAJOR_AXIS":"6917.869","TIME_SYSTEM":"UTC","MEAN_ELEMENT_THEORY":"SGP4","REF_FRAME":"TEME","PERIAPSIS":"539.021","NORAD_CAT_ID":"53827","ARG_OF_PERICENTER":"99.6756","MEAN_ANOMALY":"260.4353","RA_OF_ASC_NODE":"5.9454","GP_ID":"223882214","LAUNCH_DATE":"2022-09-19"},{"INCLINATION":"53.2191","CLASSIFICATION_TYPE":"U","OBJECT_ID":"2022-114L","APOAPSIS":"540.815","TLE_LINE1":"1 53828U 22114L   23028.94354902  .00005287  00000-0  35008-3 0  9998","MEAN_MOTION_DDOT":"0.0000000000000","PERIOD":"95.438","RCS_SIZE":"LARGE","TIME_SYSTEM":"UTC","SEMIMAJOR_AXIS":"6917.908","MEAN_ELEMENT_THEORY":"SGP4","NORAD_CAT_ID":"53828","PERIAPSIS":"538.731","REF_FRAME":"TEME","ARG_OF_PERICENTER":"92.4911","MEAN_ANOMALY":"267.6254","GP_ID":"223888488","RA_OF_ASC_NODE":"2.5841","LAUNCH_DATE":"2022-09-19","COUNTRY_CODE":"US","ELEMENT_SET_NO":"999","BSTAR":"0.00035008000000","DECAY_DATE":null,"MEAN_MOTION":"15.08830914","REV_AT_EPOCH":"2083","OBJECT_TYPE":"PAYLOAD","EPOCH":"2023-01-28T22:38:42.635328","OBJECT_NAME":"STARLINK-4760","TLE_LINE2":"2 53828  53.2191   2.5841 0001506  92.4911 267.6254 15.08830914 20831","CENTER_NAME":"EARTH","ECCENTRICITY":"0.00015060","EPHEMERIS_TYPE":"0","FILE":"3764151","SITE":"AFETR","MEAN_MOTION_DOT":"0.00005287"},{"SITE":"AFETR","MEAN_MOTION_DOT":"-0.00000010","ECCENTRICITY":"0.00008790","EPHEMERIS_TYPE":"0","FILE":"3763924","OBJECT_NAME":"STARLINK-4759","TLE_LINE2":"2 53829  53.2187   5.9228 0000879  94.1289 265.9803 15.08836497 21263","CENTER_NAME":"EARTH","REV_AT_EPOCH":"2126","OBJECT_TYPE":"PAYLOAD","EPOCH":"2023-01-28T05:25:23.354400","DECAY_DATE":null,"MEAN_MOTION":"15.08836497","ELEMENT_SET_NO":"999","COUNTRY_CODE":"US","BSTAR":"0.00001742600000","LAUNCH_DATE":"2022-09-19","GP_ID":"223883208","RA_OF_ASC_NODE":"5.9228","ARG_OF_PERICENTER":"94.1289","MEAN_ANOMALY":"265.9803","MEAN_ELEMENT_THEORY":"SGP4","NORAD_CAT_ID":"53829","PERIAPSIS":"539.148","REF_FRAME":"TEME","PERIOD":"95.438","RCS_SIZE":"LARGE","TIME_SYSTEM":"UTC","SEMIMAJOR_AXIS":"6917.891","APOAPSIS":"540.364","TLE_LINE1":"1 53829U 22114M   23028.22596475 -.00000010  00000-0  17426-4 0  9998","MEAN_MOTION_DDOT":"0.0000000000000","INCLINATION":"53.2187","OBJECT_ID":"2022-114M","CLASSIFICATION_TYPE":"U"},{"ELEMENT_SET_NO":"999","COUNTRY_CODE":"US","BSTAR":"0.00014975000000","DECAY_DATE":null,"MEAN_MOTION":"15.08838958","REV_AT_EPOCH":"2135","OBJECT_TYPE":"PAYLOAD","EPOCH":"2023-01-28T19:17:20.191488","OBJECT_NAME":"STARLINK-4761","TLE_LINE2":"2 53830  53.2189   3.1298 0001150 109.4838 250.6278 15.08838958 21358","CENTER_NAME":"EARTH","ECCENTRICITY":"0.00011500","FILE":"3764201","EPHEMERIS_TYPE":"0","SITE":"AFETR","MEAN_MOTION_DOT":"0.00002096","INCLINATION":"53.2189","OBJECT_ID":"2022-114N","CLASSIFICATION_TYPE":"U","TLE_LINE1":"1 53830U 22114N   23028.80370592  .00002096  00000-0  14975-3 0  9994","APOAPSIS":"540.544","MEAN_MOTION_DDOT":"0.0000000000000","PERIOD":"95.438","RCS_SIZE":"LARGE","TIME_SYSTEM":"UTC","SEMIMAJOR_AXIS":"6917.884","MEAN_ELEMENT_THEORY":"SGP4","NORAD_CAT_ID":"53830","PERIAPSIS":"538.953","REF_FRAME":"TEME","ARG_OF_PERICENTER":"109.4838","MEAN_ANOMALY":"250.6278","GP_ID":"223915006","RA_OF_ASC_NODE":"3.1298","LAUNCH_DATE":"2022-09-19"},{"SEMIMAJOR_AXIS":"6917.876","TIME_SYSTEM":"UTC","RCS_SIZE":"LARGE","PERIOD":"95.437","CLASSIFICATION_TYPE":"U","OBJECT_ID":"2022-114P","INCLINATION":"53.2180","MEAN_MOTION_DDOT":"0.0000000000000","TLE_LINE1":"1 53831U 22114P   23028.95092181  .00003227  00000-0  22072-3 0  9990","APOAPSIS":"540.518","RA_OF_ASC_NODE":"2.6262","GP_ID":"223888859","LAUNCH_DATE":"2022-09-19","REF_FRAME":"TEME","PERIAPSIS":"538.963","NORAD_CAT_ID":"53831","MEAN_ELEMENT_THEORY":"SGP4","ARG_OF_PERICENTER":"97.5241","MEAN_ANOMALY":"262.5878","BSTAR":"0.00022072000000","COUNTRY_CODE":"US","ELEMENT_SET_NO":"999","MEAN_MOTION":"15.08841595","DECAY_DATE":null,"EPHEMERIS_TYPE":"0","FILE":"3764151","ECCENTRICITY":"0.00011240","MEAN_MOTION_DOT":"0.00003227","SITE":"AFETR","EPOCH":"2023-01-28T22:49:19.644384","OBJECT_TYPE":"PAYLOAD","REV_AT_EPOCH":"2083","CENTER_NAME":"EARTH","TLE_LINE2":"2 53831  53.2180   2.6262 0001124  97.5241 262.5878 15.08841595 20832","OBJECT_NAME":"STARLINK-4649"},{"FILE":"3764151","EPHEMERIS_TYPE":"0","ECCENTRICITY":"0.00011260","SITE":"AFETR","MEAN_MOTION_DOT":"0.00002475","EPOCH":"2023-01-28T22:17:29.445792","REV_AT_EPOCH":"2083","OBJECT_TYPE":"PAYLOAD","CENTER_NAME":"EARTH","TLE_LINE2":"2 53832  53.2186   2.4918 0001126  94.3111 265.8010 15.08842911 20835","OBJECT_NAME":"STARLINK-4747","BSTAR":"0.00017349000000","COUNTRY_CODE":"US","ELEMENT_SET_NO":"999","DECAY_DATE":null,"MEAN_MOTION":"15.08842911","GP_ID":"223888485","RA_OF_ASC_NODE":"2.4918","LAUNCH_DATE":"2022-09-19","NORAD_CAT_ID":"53832","PERIAPSIS":"538.958","REF_FRAME":"TEME","MEAN_ELEMENT_THEORY":"SGP4","ARG_OF_PERICENTER":"94.3111","MEAN_ANOMALY":"265.8010","TIME_SYSTEM":"UTC","SEMIMAJOR_AXIS":"6917.871","PERIOD":"95.437","RCS_SIZE":"LARGE","CLASSIFICATION_TYPE":"U","OBJECT_ID":"2022-114Q","INCLINATION":"53.2186","MEAN_MOTION_DDOT":"0.0000000000000","APOAPSIS":"540.515","TLE_LINE1":"1 53832U 22114Q   23028.92881303  .00002475  00000-0  17349-3 0  9995"},{"BSTAR":"0.00134590000000","ELEMENT_SET_NO":"999","COUNTRY_CODE":"US","MEAN_MOTION":"15.08844078","DECAY_DATE":null,"EPOCH":"2023-01-28T08:14:56.514624","OBJECT_TYPE":"PAYLOAD","REV_AT_EPOCH":"2128","CENTER_NAME":"EARTH","TLE_LINE2":"2 53833  53.2198   5.2381 0001314  77.7570 282.3570 15.08844078 21288","OBJECT_NAME":"STARLINK-4771","EPHEMERIS_TYPE":"0","FILE":"3763924","ECCENTRICITY":"0.00013140","MEAN_MOTION_DOT":"0.00021199","SITE":"AFETR","CLASSIFICATION_TYPE":"U","OBJECT_ID":"2022-114R","INCLINATION":"53.2198","MEAN_MOTION_DDOT":"0.0000000000000","APOAPSIS":"540.642","TLE_LINE1":"1 53833U 22114R   23028.34370966  .00021199  00000-0  13459-2 0  9991","SEMIMAJOR_AXIS":"6917.868","TIME_SYSTEM":"UTC","RCS_SIZE":"LARGE","PERIOD":"95.437","REF_FRAME":"TEME","PERIAPSIS":"538.824","NORAD_CAT_ID":"53833","MEAN_ELEMENT_THEORY":"SGP4","MEAN_ANOMALY":"282.3570","ARG_OF_PERICENTER":"77.7570","RA_OF_ASC_NODE":"5.2381","GP_ID":"223883705","LAUNCH_DATE":"2022-09-19"},{"MEAN_MOTION_DOT":"0.00003357","SITE":"AFETR","ECCENTRICITY":"0.00013200","EPHEMERIS_TYPE":"0","FILE":"3763924","OBJECT_NAME":"STARLINK-4737","CENTER_NAME":"EARTH","TLE_LINE2":"2 53834  53.2185   5.1266 0001320  99.0603 261.0539 15.08842976 21281","OBJECT_TYPE":"PAYLOAD","REV_AT_EPOCH":"2128","EPOCH":"2023-01-28T07:48:24.609312","MEAN_MOTION":"15.08842976","DECAY_DATE":null,"COUNTRY_CODE":"US","ELEMENT_SET_NO":"999","BSTAR":"0.00022890000000","LAUNCH_DATE":"2022-09-19","RA_OF_ASC_NODE":"5.1266","GP_ID":"223881966","MEAN_ANOMALY":"261.0539","ARG_OF_PERICENTER":"99.0603","MEAN_ELEMENT_THEORY":"SGP4","REF_FRAME":"TEME","PERIAPSIS":"538.823","NORAD_CAT_ID":"53834","RCS_SIZE":"LARGE","PERIOD":"95.437","SEMIMAJOR_AXIS":"6917.871","TIME_SYSTEM":"UTC","TLE_LINE1":"1 53834U 22114S   23028.32528483  .00003357  00000-0  22890-3 0  9995","APOAPSIS":"540.649","MEAN_MOTION_DDOT":"0.0000000000000","INCLINATION":"53.2185","CLASSIFICATION_TYPE":"U","OBJECT_ID":"2022-114S"},{"MEAN_MOTION":"15.08840535","DECAY_DATE":null,"ELEMENT_SET_NO":"999","COUNTRY_CODE":"US","BSTAR":"0.00014098000000","OBJECT_NAME":"STARLINK-4783","CENTER_NAME":"EARTH","TLE_LINE2":"2 53835  53.2186   2.5101 0000875  95.4969 264.6123 15.08840535 20838","OBJECT_TYPE":"PAYLOAD","REV_AT_EPOCH":"2083","EPOCH":"2023-01-28T22:22:47.795232","MEAN_MOTION_DOT":"0.00001957","SITE":"AFETR","ECCENTRICITY":"0.00008750","FILE":"3764151","EPHEMERIS_TYPE":"0","APOAPSIS":"540.349","TLE_LINE1":"1 53835U 22114T   23028.93249763  .00001957  00000-0  14098-3 0  9999","MEAN_MOTION_DDOT":"0.0000000000000","INCLINATION":"53.2186","CLASSIFICATION_TYPE":"U","OBJECT_ID":"2022-114T","RCS_SIZE":"LARGE","PERIOD":"95.438","SEMIMAJOR_AXIS":"6917.879","TIME_SYSTEM":"UTC","MEAN_ANOMALY":"264.6123","ARG_OF_PERICENTER":"95.4969","MEAN_ELEMENT_THEORY":"SGP4","PERIAPSIS":"539.138","REF_FRAME":"TEME","NORAD_CAT_ID":"53835","LAUNCH_DATE":"2022-09-19","RA_OF_ASC_NODE":"2.5101","GP_ID":"223888864"}];
